NORAD_CAT_ID,OBJECT_NAME,OBJECT_TYPE,EPOCH,MEAN_MOTION,ECCENTRICITY,INCLINATION,RA_OF_ASC_NODE,ARG_OF_PERICENTER,MEAN_ANOMALY,BSTAR,MEAN_MOTION_DOT,MEAN_MOTION_DDOT,TLE_LINE0,TLE_LINE1,TLE_LINE2,SEMIMAJOR_AXIS,PERIOD,APOGEE,PERIGEE,DECAYED
52836.0,STARLINK-4043,PAYLOAD,2023-08-27 23:25:38,15.08834924,0.0001487,53.2166,225.3196,110.1847,249.9305,4.5981e-05,4.44e-06,0.0,0 STARLINK-4043,1 52836U 22062G   23239.97614551  .00000444  00000-0  45981-4 0  9996,2 52836  53.2166 225.3196 0001487 110.1847 249.9305 15.08834924 66186,6917.896,95.438,540.79,538.732,0.0
52836.0,STARLINK-4043,PAYLOAD,2023-08-28 08:57:57,15.08837462,0.0001408,53.216,223.5375,96.0929,264.0223,5.7412e-05,6.26e-06,0.0,0 STARLINK-4043,1 52836U 22062G   23240.37358521  .00000626  00000-0  57412-4 0  9998,2 52836  53.2160 223.5375 0001408  96.0929 264.0223 15.08837462 66249,6917.888,95.438,540.727,538.779,0.0
52836.0,STARLINK-4043,PAYLOAD,2023-08-29 05:37:58,15.08841255,0.0001386,53.2161,219.6719,95.9453,264.1697,6.876e-05,8.07e-06,0.0,0 STARLINK-4043,1 52836U 22062G   23241.23470375  .00000807  00000-0  68760-4 0  9995,2 52836  53.2161 219.6719 0001386  95.9453 264.1697 15.08841255 66378,6917.877,95.437,540.7,538.783,0.0
52836.0,STARLINK-4043,PAYLOAD,2023-08-30 02:18:00,15.08829842,0.0001422,53.2167,215.8073,96.7753,263.3401,-2.7329e-06,-3.31e-06,0.0,0 STARLINK-4043,1 52836U 22062G   23242.09583569 -.00000331  00000-0 -27329-5 0  9991,2 52836  53.2167 215.8073 0001422  96.7753 263.3401 15.08829842 66505,6917.911,95.438,540.76,538.793,0.0
52836.0,STARLINK-4043,PAYLOAD,2023-08-30 15:01:05,15.08834544,0.0001376,53.2165,213.4281,92.5408,267.5741,1.1753e-06,-2.69e-06,0.0,0 STARLINK-4043,1 52836U 22062G   23242.62575414 -.00000269  00000-0  11753-5 0  9993,2 52836  53.2165 213.4281 0001376  92.5408 267.5741 15.08834544 66583,6917.897,95.438,540.714,538.81,0.0
52836.0,STARLINK-4043,PAYLOAD,2023-08-31 00:33:24,15.08835858,0.0001317,53.2163,211.6441,95.2504,264.8638,-5.559e-06,-3.76e-06,0.0,0 STARLINK-4043,1 52836U 22062G   23243.02319567 -.00000376  00000-0 -55590-5 0  9990,2 52836  53.2163 211.6441 0001317  95.2504 264.8638 15.08835858 66642,6917.893,95.438,540.669,538.847,0.0
52836.0,STARLINK-4043,PAYLOAD,2023-08-31 16:27:11,15.08881859,0.0001356,53.2167,208.6751,88.6601,271.4546,0.00066066,0.00010254,0.0,0 STARLINK-4043,1 52836U 22062G   23243.68555318  .00010254  00000-0  66066-3 0  9990,2 52836  53.2167 208.6751 0001356  88.6601 271.4546 15.08881859 66748,6917.752,95.435,540.555,538.679,0.0
52836.0,STARLINK-4043,PAYLOAD,2023-09-01 09:56:29,15.08845658,0.0001539,53.2164,205.3991,106.1568,253.9594,4.788e-05,4.74e-06,0.0,0 STARLINK-4043,1 52836U 22062G   23244.41422990  .00000474  00000-0  47880-4 0  9998,2 52836  53.2164 205.3991 0001539 106.1568 253.9594 15.08845658 66853,6917.863,95.437,540.793,538.663,0.0
52836.0,STARLINK-4043,PAYLOAD,2023-09-01 13:07:16,15.08837575,0.0001691,53.2169,204.8156,56.7948,303.3206,1.7565e-05,-9e-08,0.0,0 STARLINK-4043,1 52836U 22062G   23244.54672068 -.00000009  00000-0  17565-4 0  9997,2 52836  53.2169 204.8156 0001691  56.7948 303.3206 15.08837575 66877,6917.888,95.438,540.923,538.583,0.0
52836.0,STARLINK-4043,PAYLOAD,2023-09-01 21:04:11,15.08837322,0.0001267,53.2164,203.3174,84.2708,275.8428,8.1811e-05,1.014e-05,0.0,0 STARLINK-4043,1 52836U 22062G   23244.87791623  .00001014  00000-0  81811-4 0  9993,2 52836  53.2164 203.3174 0001267  84.2708 275.8428 15.08837322 66920,6917.889,95.438,540.63,538.877,0.0
52836.0,STARLINK-4043,PAYLOAD,2023-09-02 03:25:44,15.0883585,9.34e-05,53.2163,202.1292,89.8676,270.2423,0.00021991,3.213e-05,0.0,0 STARLINK-4043,1 52836U 22062G   23245.14287339  .00003213  00000-0  21991-3 0  9993,2 52836  53.2163 202.1292 0000934  89.8676 270.2423 15.08835850 66964,6917.893,95.438,540.404,539.112,0.0
52836.0,STARLINK-4043,PAYLOAD,2023-09-02 14:33:25,15.08881196,0.0001203,53.2154,200.0473,82.2721,277.8408,-0.0003386,-5.679e-05,0.0,0 STARLINK-4043,1 52836U 22062G   23245.60654463 -.00005679  00000-0 -33860-3 0  9998,2 52836  53.2154 200.0473 0001203  82.2721 277.8408 15.08881196 67039,6917.754,95.435,540.452,538.787,0.0
52836.0,STARLINK-4043,PAYLOAD,2023-09-02 20:54:58,15.08847804,0.0001432,53.2142,198.8548,83.8843,276.2312,5.9332e-05,6.57e-06,0.0,0 STARLINK-4043,1 52836U 22062G   23245.87150928  .00000657  00000-0  59332-4 0  9996,2 52836  53.2142 198.8548 0001432  83.8843 276.2312 15.08847804 67078,6917.857,95.437,540.712,538.731,0.0
52836.0,STARLINK-4043,PAYLOAD,2023-09-03 00:05:44,15.0884629,0.0001372,53.2151,198.2609,84.7036,275.4113,3.4571e-05,2.62e-06,0.0,0 STARLINK-4043,1 52836U 22062G   23246.00398965  .00000262  00000-0  34571-4 0  9997,2 52836  53.2151 198.2609 0001372  84.7036 275.4113 15.08846290 67097,6917.861,95.437,540.675,538.777,0.0
52836.0,STARLINK-4043,PAYLOAD,2023-09-03 03:16:30,15.08849886,0.0001393,53.2155,197.666,95.657,264.4581,5.8037e-05,6.36e-06,0.0,0 STARLINK-4043,1 52836U 22062G   23246.13646602  .00000636  00000-0  58037-4 0  9993,2 52836  53.2155 197.6660 0001393  95.6570 264.4581 15.08849886 67112,6917.85,95.437,540.679,538.752,0.0
52836.0,STARLINK-4043,PAYLOAD,2023-09-04 03:07:19,15.08832227,0.0001305,53.216,193.208,80.3807,279.7332,-2.5461e-05,-6.93e-06,0.0,0 STARLINK-4043,1 52836U 22062G   23247.13008244 -.00000693  00000-0 -25461-4 0  9998,2 52836  53.2160 193.2080 0001305  80.3807 279.7332 15.08832227 67263,6917.904,95.438,540.672,538.866,0.0
52836.0,STARLINK-4043,PAYLOAD,2023-09-05 02:58:05,15.08843645,0.0001284,53.2162,188.7461,86.0852,274.0287,7.4492e-05,8.98e-06,0.0,0 STARLINK-4043,1 52836U 22062G   23248.12367257  .00000898  00000-0  74492-4 0  9993,2 52836  53.2162 188.7461 0001284  86.0852 274.0287 15.08843645 67416,6917.869,95.437,540.623,538.846,0.0
52836.0,STARLINK-4043,PAYLOAD,2023-09-05 06:08:51,15.08847405,0.0001293,53.2161,188.151,86.1342,273.9798,8.3452e-05,1.041e-05,0.0,0 STARLINK-4043,1 52836U 22062G   23248.25614985  .00001041  00000-0  83452-4 0  9997,2 52836  53.2161 188.1510 0001293  86.1342 273.9798 15.08847405 67434,6917.858,95.437,540.617,538.828,0.0
52836.0,STARLINK-4043,PAYLOAD,2023-09-06 02:48:52,15.08840495,0.0001352,53.2163,184.2851,79.8094,280.3051,0.00014692,2.051e-05,0.0,0 STARLINK-4043,1 52836U 22062G   23249.11727568  .00002051  00000-0  14692-3 0  9996,2 52836  53.2163 184.2851 0001352  79.8094 280.3051 15.08840495 67560,6917.879,95.438,540.679,538.809,0.0
52836.0,STARLINK-4043,PAYLOAD,2023-09-07 02:39:40,15.08843841,0.0001149,53.2168,179.828,85.9719,274.1404,-1.9102e-06,-3.18e-06,0.0,0 STARLINK-4043,1 52836U 22062G   23250.11087967 -.00000318  00000-0 -19102-5 0  9999,2 52836  53.2168 179.8280 0001149  85.9719 274.1404 15.08843841 67715,6917.869,95.437,540.529,538.939,0.0
52836.0,STARLINK-4043,PAYLOAD,2023-09-07 18:33:31,15.08837458,0.0001113,53.2158,176.8546,93.3329,266.7791,0.00011368,1.522e-05,0.0,0 STARLINK-4043,1 52836U 22062G   23250.77328029  .00001522  00000-0  11368-3 0  9998,2 52836  53.2158 176.8546 0001113  93.3329 266.7791 15.08837458 67811,6917.888,95.438,540.523,538.983,0.0
52836.0,STARLINK-4043,PAYLOAD,2023-09-08 02:30:27,15.08800461,0.000122,53.2168,175.3675,102.8782,257.2347,0.00071446,0.00011089,0.0,0 STARLINK-4043,1 52836U 22062G   23251.10448858  .00011089  00000-0  71446-3 0  9991,2 52836  53.2168 175.3675 0001220 102.8782 257.2347 15.08800461 67868,6918.001,95.44,540.71,539.022,0.0
52836.0,STARLINK-4043,PAYLOAD,2023-09-09 02:21:13,15.08847328,0.0001204,53.2171,170.9066,89.7494,270.3636,0.00010754,1.424e-05,0.0,0 STARLINK-4043,1 52836U 22062G   23252.09807612  .00001424  00000-0  10754-3 0  9994,2 52836  53.2171 170.9066 0001204  89.7494 270.3636 15.08847328 68010,6917.858,95.437,540.556,538.89,0.0
52836.0,STARLINK-4043,PAYLOAD,2023-09-09 11:53:33,15.0883887,0.0001185,53.2176,169.1206,70.6515,289.4605,6.9614e-05,8.2e-06,0.0,0 STARLINK-4043,1 52836U 22062G   23252.49552296  .00000820  00000-0  69614-4 0  9992,2 52836  53.2176 169.1206 0001185  70.6515 289.4605 15.08838870 68077,6917.884,95.438,540.569,538.929,0.0
52836.0,STARLINK-4043,PAYLOAD,2023-09-09 18:15:05,15.08838389,0.0001388,53.2175,167.9312,86.9718,273.1432,3.8903e-07,-2.82e-06,0.0,0 STARLINK-4043,1 52836U 22062G   23252.76048578 -.00000282  00000-0  38903-6 0  9997,2 52836  53.2175 167.9312 0001388  86.9718 273.1432 15.08838389 68118,6917.885,95.438,540.711,538.79,0.0
52836.0,STARLINK-4043,PAYLOAD,2023-09-10 03:47:24,15.08846137,0.0001329,53.217,166.1463,83.4167,276.6977,5.0739e-05,5.2e-06,0.0,0 STARLINK-4043,1 52836U 22062G   23253.15791886  .00000520  00000-0  50739-4 0  9991,2 52836  53.2170 166.1463 0001329  83.4167 276.6977 15.08846137 68174,6917.862,95.437,540.646,538.807,0.0
52836.0,STARLINK-4043,PAYLOAD,2023-09-11 00:27:25,15.08843634,0.000133,53.2168,162.2814,88.4931,271.6213,1.3831e-05,-6.8e-07,0.0,0 STARLINK-4043,1 52836U 22062G   23254.01904247 -.00000068  00000-0  13831-4 0  9994,2 52836  53.2168 162.2814 0001330  88.4931 271.6213 15.08843634 68306,6917.869,95.437,540.654,538.814,0.0
52836.0,STARLINK-4043,PAYLOAD,2023-09-11 11:35:07,15.08844812,0.0001296,53.2167,160.2007,86.2161,273.8979,1.0473e-05,-1.21e-06,0.0,0 STARLINK-4043,1 52836U 22062G   23254.48272124 -.00000121  00000-0  10473-4 0  9996,2 52836  53.2167 160.2007 0001296  86.2161 273.8979 15.08844812 68378,6917.866,95.437,540.627,538.834,0.0
52836.0,STARLINK-4043,PAYLOAD,2023-09-11 21:07:25,15.08841905,0.0001381,53.2165,158.4174,80.0001,280.1147,0.0001109,1.478e-05,0.0,0 STARLINK-4043,1 52836U 22062G   23254.88016171  .00001478  00000-0  11090-3 0  9998,2 52836  53.2165 158.4174 0001381  80.0001 280.1147 15.08841905 68435,6917.875,95.437,540.695,538.784,0.0
52836.0,STARLINK-4043,PAYLOAD,2023-09-12 20:58:13,15.08842202,0.0001217,53.2162,153.957,80.4675,279.6455,4.8863e-05,4.9e-06,0.0,0 STARLINK-4043,1 52836U 22062G   23255.87376378  .00000490  00000-0  48863-4 0  9998,2 52836  53.2162 153.9570 0001217  80.4675 279.6455 15.08842202 68583,6917.874,95.437,540.581,538.897,0.0
